#dP2023  2 17  0  0  0.00000000      96 __u+U IGS14 FIT  IAC
## 2249 432000.00000000   900.00000000 59992 0.0000000000000
+  119   C06C07C08C09C10C11C12C13C14C16C19C20C21C22C23C24C25
+        C26C27C28C29C30C32C33C34C35C36C37C38C39C40C41C42C43
+        C44C45C46E01E02E03E04E05E07E08E09E10E11E12E13E14E15
+        E18E19E21E24E25E26E27E30E31E33E34E36G01G02G03G04G05
+        G06G07G08G09G10G11G12G13G14G15G17G18G19G20G21G22G23
+        G24G25G26G27G28G29G30G31G32J02J03J04R01R02R03R04R05
+        R07R08R09R11R12R13R14R15R16R17R18R19R20R21R22R24R25
++         9  9  9  9  9  9  9  9  9  9  8  8  8  8  7  8  7
++         8  8  8  8  8  8  8  8  8  8  8  8  9  8  8  8  8
++         8  8  8  4  4  4  4  4  4  4  4  5  4  4  4  4  4
++         4  4  4  4  4  4  4  4  5  5  4  4  4  4  3  4  4
++         3  4  4  4  3  3  3  4  3  4  3  4  3  4  4  3  4
++         3  3  4  4  4  4  4  3  3 11 11 12  8  7  7  7  7
++         7  7  7  7  7  8  7  6  7  6  6  7  8  7  7  6  8
%c M  cc GPS ccc cccc cccc cccc cccc ccccc ccccc ccccc ccccc
%c cc cc ccc ccc cccc cccc cccc cccc ccccc ccccc ccccc ccccc
%f  1.2500000  1.025000000  0.00000000000  0.000000000000000
%f  0.0000000  0.000000000  0.00000000000  0.000000000000000
%i    0    0    0    0      0      0      0      0         0
%i    0    0    0    0      0      0      0      0         0
/* INFORMATION & ANALYSIS CENTER (IAC)            FINAL DATA
/* S/V CLOCKS ARE ALIGNED TO GNSS TIME                      
/* G:C1WC2W R:C1PC2P E:C1XC5X C:C2IC6I J:C1CC2S             
/* PCV:IGS20_2247 OL/AL:FES2004  NONE     YN ORB:CoN CLK:CoN
*  2023 02 17  0 45  0.00000000
PC06  -8176.569202  23277.563082  34192.288210   -191.430587
PC07 -16951.235907  36861.341577 -11711.825174    103.210222
PC08   -773.180726  37206.752968 -19618.703086    525.608599
PC09   1789.064412  25934.810318  33674.428966    705.341939
PC10 -11375.261472  37080.982764 -16823.757491      9.725159
PC11 -23209.235672 -10624.739218  11365.025473   -116.428717
PC12  -6160.317470 -15610.109226  22335.890240    456.979642
PC13   3198.073343  39299.986689 -14391.020774    209.575083
PC14 -13288.951676  -8518.607736 -22992.155619    488.816391
PC16  -9867.422191  22276.579472  34597.273891    160.498999
PC19  18457.350119  -1290.699201  20914.345184   -894.575692
PC20   7228.238747  15636.698698  21977.190928    720.277176
PC21   9288.034792 -24400.635115  -9806.111822   -910.681061
PC22  19606.805306 -18292.159382   7689.573447   -629.104947
PC23 -13472.965031   9581.613319  22475.471995   -878.289729
PC24 -12688.082691 -24795.052722   1944.492862   -401.326950
PC25 -18988.738575  -9363.627009  18177.438281     73.282429
PC26  -1027.154936 -24482.095453 -13405.998073    -79.817771
PC27  -3821.974204  15548.616972 -22873.147057     97.893653
PC28 -21430.250483   8566.285892 -15681.914347     71.323569
PC29  27636.280215   3370.090734  -1971.457817     82.090553
PC30  16382.829803  13733.670675 -17957.503524      1.131396
PC32  -9126.465569  24504.270204   9779.671264   -620.124574
PC33 -18436.666260   1337.490388 -20901.011951   -872.847077
PC34 -17490.714573 -13334.220854  17150.113154    107.779283
PC35  22039.103438  -8709.730461  14763.090803    679.258541
PC36  18764.375202  10479.315133 -17779.488346   -620.302531
PC37   -666.409448  23833.273950  14482.887661   -819.484395
PC38  -7083.190581  32720.294556 -25494.752679     59.293279
PC39 -16917.077185  19984.415685  33029.557735     -1.839541
PC40 -24184.876932  33018.502967 -10595.831017    -15.302952
PC41 -19681.908324  17990.382783  -8177.363921   -620.891075
PC42  -6234.775822 -16617.334798 -21482.049279   -832.815352
PC43 -27472.823184  -3963.020626   2727.656670      7.547063
PC44   3551.681449 -15770.420398  22737.513430     17.724109
PC45  13128.498048  -9988.167508 -22518.838704    -61.392131
PC46  13631.780234  24046.256699  -3673.576240    -33.942735
PE01   7930.119145  23699.613376 -15857.560719   -600.516038
PE02  -8177.122891 -23417.275494  16162.775486     21.249372
PE03 -13004.786424 -12408.837018 -23519.835215   -650.756088
PE04  26630.149943  -1559.555351  12840.708014    -59.892710
PE05   8623.552709 -19416.685586 -20608.166640    -94.635966
PE07 -24942.990275  14926.352233   5607.569557    -23.475135
PE08 -26542.780623   1574.708982 -13011.998042    -37.288092
PE09  25019.816335 -14842.821658  -5436.605771   -838.745563
PE10  22772.984365   1794.005358  18822.579006   -512.928940
PE11  15871.543702  -7433.112610  23852.513892    914.686612
PE12  25510.589603   9903.556427  11315.318515   -425.041747
PE13 -16490.288256   6693.943551 -23641.868558     -0.308542
PE14  -3865.045318  21398.536822 -23296.626941    144.306350
PE15 -25522.285542 -10141.122923 -11018.934514     -1.633819
PE18  -8877.781071 -13792.344817  18735.513907   -382.226631
PE19  10208.386610  13838.975794  24100.698466  -3216.526607
PE21  -3914.205041  29332.032623    387.982222   -512.588225
PE24  14959.286019 -17918.689316 -18239.560205  -1118.283832
PE25   4136.961346 -29308.205235   -714.869589   -599.540673
PE26   2804.519651  19842.366296 -21778.217304     20.575461
PE27 -14555.979901  18718.999386  17702.460707   -514.096109
PE30 -16428.789293  -3648.582540  24336.041106  -1248.527051
PE31  16514.254560   2784.147627 -24406.150351   -516.236497
PE33  19431.681120  20857.226738  -7992.731271   -451.783497
PE34 -19564.525680 -20780.976135   7848.808937    -30.480817
PE36  -2065.932135 -19392.145381  22269.499600    -13.531555
PG01  21914.826473  13960.236407   6021.588094    211.733355
PG02 -23013.500148  -9701.369080  -8056.638334   -620.345878
PG03  13255.060304   8013.439598  21470.996258   -362.210498
PG04  23056.502905   2223.584898  13104.873567    -25.915225
PG05  -6575.485880 -21849.739649 -13661.995194   -116.190104
PG06   4178.226011 -15090.717581  21504.713830    573.214192
PG07  20541.400060   1993.671155 -16549.376860    239.644176
PG08  14218.184079   9772.481798 -20353.544675   -108.848360
PG09  25364.534488  -7269.331225   3182.885496   -216.856186
PG10 -11180.778778  21315.996528 -10695.451485    -25.014181
PG11  -8328.228215 -21072.446475  13896.356543   -106.221064
PG12 -12108.147248 -10700.504808  20818.562546   -341.229001
PG13  -6033.402202 -14070.136816 -21893.982438    477.275599
PG14  13413.696178 -19024.618873 -12665.324033    -25.384042
PG15 -15643.947414  -8712.040340 -20143.276138     14.098458
PG17  20724.300880 -13345.790914  10454.480569    700.496192
PG18 -18150.072160   1577.334624 -19375.317285   -143.727648
PG19  12063.219505 -15267.314259  17720.692161    278.691234
PG20  -1462.162461 -26506.252481  -2590.305474    450.262345
PG21  21166.218732  16609.037005  -1777.904461    154.040276
PG22  -8005.667992  16337.861631  19727.315368    428.525023
PG23 -14795.041887  11150.800434 -18971.395947      6.477040
PG24 -22241.834649 -14868.216748   1039.723288    -76.814951
PG25 -15404.183089    398.788880  21301.620553    420.723511
PG26  -4242.531183  25970.544356   1632.698273    241.553050
PG27   2324.692439  15140.557755 -21899.146179    100.654937
PG28  -5851.846406  14463.189907  21461.370031     15.329843
PG29 -25734.899075   2805.647602   6071.515433   -586.510599
PG30  12150.916835 -10182.564900 -21230.212051   -530.048215
PG31  -3048.851480  16523.585072  20292.019469   -209.434705
PG32 -17725.812658  15574.568840  12157.028296   -398.381794
PJ02 -29813.358118  25422.036909  20606.277117     -0.907384
PJ03 -28625.013090  16143.952048 -21803.167743      0.301003
PJ04 -22965.326698  34666.519088  -1719.215744     94.274350
PR01  19574.210080 -13099.337890   9786.885062     23.180998
PR02  14279.874844 -19197.629980  -8892.157632    -23.253758
PR03    242.560870 -14112.953511 -21213.214861     72.639577
PR04 -13423.490587  -1158.628048 -21624.413771    176.093150
PR05 -19908.080149  12231.772883 -10187.476907    107.886010
PR07    576.292872  13574.278272  21619.926379     50.079351
PR08  13660.913205   1029.164070  21585.318257    -69.488758
PR09  -1554.174804  21131.496976  14271.040830    104.512859
PR11  12169.335116  14672.154776 -16951.359498     -5.676704
PR12   9979.436093  -5258.598256 -22861.748188     25.064447
PR13   2546.797745 -19935.256033 -15734.270406    -32.097897
PR14  -7429.049047 -24287.075995   2299.710879     24.348390
PR15 -12227.021534 -13737.392750  17688.207142     91.022370
PR16  -9915.798631   4930.470530  22981.763904     11.377110
PR17 -12067.145973 -12450.653888  18733.605474    605.527310
PR18 -23252.521358  -9312.015179   4680.733217     67.184186
PR19 -22993.976870  -2738.890563 -10690.427423   -222.159378
PR20  -7544.348488   8183.735632 -22934.873500    -87.808974
PR21  13534.361192  12421.123623 -17685.684164   -373.887343
PR22  23229.324712   9879.872009  -3711.896496     71.293872
PR24   6792.671190  -9124.711405  22849.721746    147.374445
PR25  11056.986184  13225.172649 -18788.710472     55.293361
EOF
